PTD-R (TYVAK-0127)      
1 60523U 24149BH  26068.81355855  .00144621  00000+0  12021-2 0  9993
2 60523  97.3759 162.0693 0004267 248.5856 111.4951 15.69700541 87692
STARLINK-11395 [DTC]    
1 61951U 24209N   26068.21210913  .00177926  00000+0  14400-2 0  9992
2 61951  53.1569  13.5584 0001173  69.6882 290.4262 15.69747093 76605
