[{"OBJECT_NAME":"PTD-R (TYVAK-0127)","OBJECT_ID":"2024-149BH","EPOCH":"2026-03-09T19:31:31.459584","MEAN_MOTION":15.69700541,"ECCENTRICITY":0.00042667,"INCLINATION":97.3759,"RA_OF_ASC_NODE":162.0693,"ARG_OF_PERICENTER":248.5856,"MEAN_ANOMALY":111.4951,"EPHEMERIS_TYPE":0,"CLASSIFICATION_TYPE":"U","NORAD_CAT_ID":60523,"ELEMENT_SET_NO":999,"REV_AT_EPOCH":8769,"BSTAR":0.0012020526,"MEAN_MOTION_DOT":0.00144621,"MEAN_MOTION_DDOT":0},{"OBJECT_NAME":"STARLINK-11395 [DTC]","OBJECT_ID":"2024-209N","EPOCH":"2026-03-09T05:05:26.228832","MEAN_MOTION":15.69747093,"ECCENTRICITY":0.00011739,"INCLINATION":53.1569,"RA_OF_ASC_NODE":13.5584,"ARG_OF_PERICENTER":69.6882,"MEAN_ANOMALY":290.4262,"EPHEMERIS_TYPE":0,"CLASSIFICATION_TYPE":"U","NORAD_CAT_ID":61951,"ELEMENT_SET_NO":999,"REV_AT_EPOCH":7660,"BSTAR":0.0014399761,"MEAN_MOTION_DOT":0.00177926,"MEAN_MOTION_DDOT":0}]
